H1 CPF 01  gfz 2022 02 04 13  5352 terrasarx 
H2 0702601  6201 31698    2022 02 04 12 59 42 2022 02 09 00 00 42   120 1 1  0 0 0
H9
10 0 59615  10062.000000  0   -1364645.572   -210670.064   6738000.901
10 0 59615  10182.000000  0    -765076.546    483055.453   6818106.298
10 0 59615  10302.000000  0    -140186.971   1157639.102   6778424.812
10 0 59615  10422.000000  0     498681.296   1800967.833   6619650.479
10 0 59615  10542.000000  0    1139735.567   2401672.566   6344556.228
10 0 59615  10662.000000  0    1770949.180   2949328.827   5957947.794
10 0 59615  10782.000000  0    2380286.308   3434639.095   5466585.591
10 0 59615  10902.000000  0    2955932.564   3849594.807   4879073.391
10 0 59615  11022.000000  0    3486527.024   4187613.142   4205712.234
10 0 59615  11142.000000  0    3961388.094   4443645.274   3458324.581
10 0 59615  11262.000000  0    4370733.979   4614258.078   2650051.086
10 0 59615  11382.000000  0    4705889.383   4697681.297   1795115.882
10 0 59615  11502.000000  0    4959470.044   4693822.090    908573.428
10 0 59615  11622.000000  0    5125547.598   4604245.460      6036.922
10 0 59615  11742.000000  0    5199783.498   4432119.552   -896606.706
10 0 59615  11862.000000  0    5179530.356   4182128.196  -1783484.811
10 0 59615  11982.000000  0    5063900.332   3860353.574  -2639025.467
10 0 59615  12102.000000  0    4853797.950   3474131.806  -3448236.500
10 0 59615  12222.000000  0    4551916.372   3031886.433  -4196970.962
10 0 59615  12342.000000  0    4162698.035   2542943.396  -4872174.206
10 0 59615  12462.000000  0    3692261.868   2017331.523  -5462106.729
10 0 59615  12582.000000  0    3148299.389   1465575.134  -5956540.254
10 0 59615  12702.000000  0    2539941.557    898483.274  -6346925.068
10 0 59615  12822.000000  0    1877600.356    326939.446  -6626525.842
10 0 59615  12942.000000  0    1172789.892   -238303.467  -6790526.520
10 0 59615  13062.000000  0     437927.637   -786821.492  -6836106.206
10 0 59615  13182.000000  0    -313881.723  -1308707.354  -6762480.831
10 0 59615  13302.000000  0   -1069073.640  -1794744.012  -6570914.571
10 0 59615  13422.000000  0   -1813862.657  -2236563.794  -6264701.625
10 0 59615  13542.000000  0   -2534488.568  -2626790.722  -5849115.184
10 0 59615  13662.000000  0   -3217465.573  -2959163.031  -5331326.279
10 0 59615  13782.000000  0   -3849833.607  -3228636.197  -4720292.583
10 0 59615  13902.000000  0   -4419406.533  -3431463.061  -4026614.133
10 0 59615  14022.000000  0   -4915011.029  -3565248.600  -3262359.348
10 0 59615  14142.000000  0   -5326712.547  -3628978.922  -2440862.670
10 0 59615  14262.000000  0   -5646022.368  -3623022.819  -1576495.562
10 0 59615  14382.000000  0   -5866079.847  -3549105.022   -684415.192
10 0 59615  14502.000000  0   -5981805.601  -3410251.738    219704.745
10 0 59615  14622.000000  0   -5990021.341  -3210709.362   1119955.707
10 0 59615  14742.000000  0   -5889531.852  -2955837.821   2000484.044
10 0 59615  14862.000000  0   -5681165.112  -2651980.148   2845779.794
10 0 59615  14982.000000  0   -5367772.364  -2306313.812   3640957.181
10 0 59615  15102.000000  0   -4954187.265  -1926686.498   4372024.243
10 0 59615  15222.000000  0   -4447143.777  -1521439.567   5026131.815
10 0 59615  15342.000000  0   -3855158.742  -1099226.677   5591797.940
10 0 59615  15462.000000  0   -3188381.860   -668830.549   6059107.235
10 0 59615  15582.000000  0   -2458413.998   -238980.361   6419881.335
10 0 59615  15702.000000  0   -1678097.901    181824.803   6667815.571
10 0 59615  15822.000000  0    -861288.192    585481.807   6798582.021
10 0 59615  15942.000000  0     -22604.312    964437.940   6809900.251
10 0 59615  16062.000000  0     822830.668   1311831.356   6701574.333
10 0 59615  16182.000000  0    1659661.828   1621615.435   6475496.154
10 0 59615  16302.000000  0    2472580.367   1888664.201   6135613.931
10 0 59615  16422.000000  0    3246603.425   2108857.454   5687868.211
10 0 59615  16542.000000  0    3967353.009   2279144.905   5140094.023
10 0 59615  16662.000000  0    4621326.422   2397587.971   4501889.468
10 0 59615  16782.000000  0    5196155.076   2463379.416   3784454.366
10 0 59615  16902.000000  0    5680849.265   2476838.749   3000396.652
10 0 59615  17022.000000  0    6066015.089   2439382.443   2163509.168
10 0 59615  17142.000000  0    6344044.988   2353472.266   1288526.108
10 0 59615  17262.000000  0    6509275.276   2222540.258    390857.429
10 0 59615  17382.000000  0    6558104.650   2050893.217   -513690.931
10 0 59615  17502.000000  0    6489069.705   1843598.961  -1409204.924
10 0 59615  17622.000000  0    6302878.828   1606357.165  -2279948.720
10 0 59615  17742.000000  0    6002404.693   1345358.409  -3110648.894
10 0 59615  17862.000000  0    5592630.738   1067134.338  -3886767.305
10 0 59615  17982.000000  0    5080556.600    778403.874  -4594756.586
10 0 59615  18102.000000  0    4475065.278    485919.594  -5222293.093
10 0 59615  18222.000000  0    3786757.821    196317.491  -5758483.895
10 0 59615  18342.000000  0    3027758.865    -84026.141  -6194046.583
10 0 59615  18462.000000  0    2211496.156   -349128.362  -6521459.451
10 0 59615  18582.000000  0    1352460.718   -593521.550  -6735079.217
10 0 59615  18702.000000  0     465951.548   -812361.479  -6831229.505
10 0 59615  18822.000000  0    -432193.810  -1001519.292  -6808256.870
10 0 59615  18942.000000  0   -1325875.243  -1157656.574  -6666555.332
10 0 59615  19062.000000  0   -2199012.085  -1278282.923  -6408561.096
10 0 59615  19182.000000  0   -3035826.270  -1361794.859  -6038714.120
10 0 59615  19302.000000  0   -3821121.133  -1407495.882  -5563390.057
10 0 59615  19422.000000  0   -4540556.853  -1415597.812  -4990802.578
10 0 59615  19542.000000  0   -5180915.391  -1387202.382  -4330872.467
10 0 59615  19662.000000  0   -5730349.356  -1324263.609  -3595066.733
10 0 59615  19782.000000  0   -6178611.309  -1229531.502  -2796208.357
10 0 59615  19902.000000  0   -6517256.727  -1106477.622  -1948257.920
10 0 59615  20022.000000  0   -6739815.293   -959204.049  -1066071.396
10 0 59615  20142.000000  0   -6841926.604   -792337.753   -165137.481
10 0 59615  20262.000000  0   -6821434.328   -610911.431    738700.650
10 0 59615  20382.000000  0   -6678436.580   -420235.705   1629531.365
10 0 59615  20502.000000  0   -6415291.278   -225765.671   2491663.906
10 0 59615  20622.000000  0   -6036575.591    -32964.435   3309913.693
10 0 59615  20742.000000  0   -5549000.196    152832.643   4069877.460
10 0 59615  20862.000000  0   -4961281.067    326548.880   4758191.360
10 0 59615  20982.000000  0   -4283973.094    483489.348   5362766.806
10 0 59615  21102.000000  0   -3529270.985    619453.894   5873000.485
10 0 59615  21222.000000  0   -2710780.830    730836.630   6279956.893
10 0 59615  21342.000000  0   -1843267.587    814709.909   6576519.545
10 0 59615  21462.000000  0    -942383.149    868892.541   6757509.695
10 0 59615  21582.000000  0     -24381.548    891999.771   6819769.963
10 0 59615  21702.000000  0     894173.791    883474.396   6762215.316
10 0 59615  21822.000000  0    1796707.556    843599.140   6585850.794
10 0 59615  21942.000000  0    2666930.459    773489.782   6293755.224
10 0 59615  22062.000000  0    3489133.321    675068.916   5891031.699
10 0 59615  22182.000000  0    4248473.272    551020.904   5384723.443
10 0 59615  22302.000000  0    4931245.482    404728.698   4783696.616
10 0 59615  22422.000000  0    5525137.326    240192.727   4098491.716
10 0 59615  22542.000000  0    6019460.363     61935.265   3341143.032
10 0 59615  22662.000000  0    6405353.363   -125108.108   2524968.252
10 0 59615  22782.000000  0    6675950.271   -315709.102   1664332.182
10 0 59615  22902.000000  0    6826510.777   -504476.378    774390.524
10 0 59615  23022.000000  0    6854509.977   -685988.866   -129183.702
10 0 59615  23142.000000  0    6759683.346   -854931.540  -1030485.582
10 0 59615  23262.000000  0    6544024.681  -1006229.510  -1913667.249
10 0 59615  23382.000000  0    6211739.048  -1135176.579  -2763224.556
10 0 59615  23502.000000  0    5769151.647  -1237555.357  -3564274.501
10 0 59615  23622.000000  0    5224576.126  -1309745.698  -4302818.129
10 0 59615  23742.000000  0    4588146.206  -1348818.608  -4965983.397
10 0 59615  23862.000000  0    3871616.072  -1352614.445  -5542244.393
10 0 59615  23982.000000  0    3088133.330  -1319804.222  -6021613.569
10 0 59615  24102.000000  0    2251991.073  -1249931.871  -6395803.763
10 0 59615  24222.000000  0    1378364.691  -1143436.564  -6658360.557
10 0 59615  24342.000000  0     483037.058  -1001656.571  -6804762.923
10 0 59615  24462.000000  0    -417882.697   -826814.151  -6832492.825
10 0 59615  24582.000000  0   -1308242.637   -621981.192  -6741073.332
10 0 59615  24702.000000  0   -2172131.100   -391026.398  -6532076.316
10 0 59615  24822.000000  0   -2994154.743   -138544.425  -6209097.127
10 0 59615  24942.000000  0   -3759706.618    130231.428  -5777699.507
10 0 59615  25062.000000  0   -4455224.615    409532.658  -5245330.611
10 0 59615  25182.000000  0   -5068433.658    693172.787  -4621203.218
10 0 59615  25302.000000  0   -5588568.805    974677.175  -3916148.931
10 0 59615  25422.000000  0   -6006574.460   1247424.043  -3142439.819
10 0 59615  25542.000000  0   -6315273.623   1504792.432  -2313581.594
10 0 59615  25662.000000  0   -6509503.741   1740313.779  -1444081.326
10 0 59615  25782.000000  0   -6586215.560   1947824.501   -549192.979
10 0 59615  25902.000000  0   -6544530.381   2121614.627    355355.597
10 0 59615  26022.000000  0   -6385753.170   2256568.684   1253646.398
10 0 59615  26142.000000  0   -6113342.183   2348296.327   2129859.715
10 0 59615  26262.000000  0   -5732834.679   2393248.490   2968562.014
10 0 59615  26382.000000  0   -5251731.044   2388815.332   3754985.903
10 0 59615  26502.000000  0   -4679339.764   2333403.495   4475296.172
99
